IRIDIUM 159             
1 43578U 18061K   26025.32029463  .00000312  00000+0  10429-3 0  9991
2 43578  86.3982 116.4646 0002137 100.4289 259.7148 14.34222316392907
IRIDIUM 180             
1 43922U 19002A   26025.31979423  .00000424  00000+0  14443-3 0  9993
2 43922  86.3929  53.3113 0002210  95.4157 264.7291 14.34221596368512
IRIDIUM 176             
1 43923U 19002B   26025.15493924  .00001530  00000+0  23867-3 0  9992
2 43923  86.6051  53.3445 0002629  90.6135 269.5384 14.72272531378207
IRIDIUM 168             
1 43924U 19002C   26025.10415422  .00000131  00000+0  39889-4 0  9993
2 43924  86.3933  53.4752 0002199  91.3803 268.7645 14.34216541368463
IRIDIUM 173             
1 43925U 19002D   26025.16123412  .00000179  00000+0  56738-4 0  9999
2 43925  86.3926  53.3455 0002357  92.1233 268.0232 14.34216232368458
IRIDIUM 169             
1 43926U 19002E   26025.24557657  .00000181  00000+0  52754-4 0  9998
2 43926  86.4197  84.9735 0003017  85.8882 274.2661 14.38606634369677
IRIDIUM 172             
1 43927U 19002F   26025.15489256  .00000186  00000+0  59253-4 0  9994
2 43927  86.3928  53.3556 0002174  97.4052 262.7391 14.34217571368463
IRIDIUM 175             
1 43928U 19002G   26025.21824638  .00001728  00000+0  27019-3 0  9996
2 43928  86.1522 353.2755 0001815  56.9061 303.2330 14.72238752378209
